ONEWEB-0236             
1 48797U 21045AG  26166.95892361  .00000006  00000+0 -17510-4 0  9995
2 48797  87.9001 259.4511 0002085 101.6667 258.4698 13.15547973244097
ONEWEB-0248             
1 48798U 21045AH  26166.74341746 -.00000146  00000+0 -42138-3 0  9998
2 48798  87.9012 259.4774 0001735 114.3441 245.7871 13.15547262244221
ONEWEB-0225             
1 48799U 21045AJ  26166.76561194 -.00000005  00000+0 -47926-4 0  9997
2 48799  87.9006 259.4812 0001438 109.7656 250.3630 13.15548995244234
ONEWEB-0215             
1 48800U 21045AK  26166.96365901 -.00000023  00000+0 -94360-4 0  9994
2 48800  87.9014 259.4240 0001465 116.8981 243.2299 13.15546973244136
ONEWEB-0216             
1 48801U 21045AL  26166.74501294 -.00000082  00000+0 -25186-3 0  9992
2 48801  87.9010 259.4826 0001962  98.3388 261.7965 13.15548854244113
ONEWEB-0239             
1 48802U 21045AM  26166.74976231 -.00000089  00000+0 -27132-3 0  9990
2 48802  87.8999 259.4881 0001649 124.5858 235.5428 13.15548213244152
ONEWEB-0249             
1 48967U 21060A   26166.91293813  .00000022  00000+0  23380-4 0  9993
2 48967  87.9098 229.0313 0002055 101.7257 258.4105 13.16595581239443
ONEWEB-0250             
1 48968U 21060B   26166.87364931  .00000021  00000+0  17292-4 0  9993
2 48968  87.9097 226.7996 0002802 114.9686 245.1741 13.25833655240040
ONEWEB-0252             
1 48970U 21060D   26166.86781811  .00000091  00000+0  20521-3 0  9990
2 48970  87.9100 229.0323 0001911  92.1906 267.9444 13.16594056239487
ONEWEB-0253             
1 48971U 21060E   26166.70474198  .00000026  00000+0  35447-4 0  9993
2 48971  87.9098 229.0702 0002054 101.5523 258.5839 13.16593715239399
ONEWEB-0254             
1 48972U 21060F   26166.86623677 -.00000022  00000+0 -91549-4 0  9992
2 48972  87.9101 229.0356 0001899 106.2189 253.9151 13.16594761239417
ONEWEB-0255             
1 48973U 21060G   26166.90423469  .00000051  00000+0  10097-3 0  9993
2 48973  87.9096 229.0348 0001885 102.1775 257.9567 13.16594620239490
ONEWEB-0256             
1 48974U 21060H   26166.70236076  .00000052  00000+0  10170-3 0  9991
2 48974  87.9094 229.0790 0002078  94.8087 265.3282 13.16593346239433
ONEWEB-0257             
1 48975U 21060J   26166.88681395 -.00000080  00000+0 -24367-3 0  9995
2 48975  87.9096 229.0294 0001908  97.3602 262.7745 13.16594696239419
ONEWEB-0258             
1 48976U 21060K   26166.66040915 -.00000051  00000+0 -16607-3 0  9995
2 48976  87.9098 229.0865 0002066  99.6447 260.4917 13.16594135239395
ONEWEB-0259             
1 48977U 21060L   26166.88206912 -.00000101  00000+0 -29783-3 0  9996
2 48977  87.9097 229.0415 0002065 103.2329 256.9032 13.16595080239451
ONEWEB-0260             
1 48978U 21060M   26166.87335458 -.00000017  00000+0 -77399-4 0  9997
2 48978  87.9094 229.0450 0001998  86.6855 273.4505 13.16594574239434
ONEWEB-0261             
1 48979U 21060N   26166.91925302  .00000119  00000+0  27781-3 0  9996
2 48979  87.9094 229.0359 0001690  99.7968 260.3353 13.16596058239493
ONEWEB-0262             
1 48980U 21060P   26166.89948266  .00000049  00000+0  95219-4 0  9993
2 48980  87.9097 229.0257 0002069 106.2935 253.8424 13.16594733239454
ONEWEB-0263             
1 48981U 21060Q   26166.93114779  .00000099  00000+0  22532-3 0  9995
2 48981  87.9099 229.0311 0001733 103.5090 256.6234 13.16594423239420
ONEWEB-0264             
1 48982U 21060R   26166.66437037 -.00000104  00000+0 -30579-3 0  9990
2 48982  87.9098 229.0872 0001865  94.2340 265.9004 13.16594772239393
ONEWEB-0266             
1 48984U 21060T   26166.91373369 -.00000004  00000+0 -44736-4 0  9997
2 48984  87.9098 229.0281 0002126  98.8411 261.2960 13.16594086239410
ONEWEB-0267             
1 48985U 21060U   26166.92481697  .00000152  00000+0  36446-3 0  9993
2 48985  87.9100 229.0225 0001807  98.3219 261.8117 13.16594503239424
ONEWEB-0268             
1 48986U 21060V   26166.89313623 -.00000096  00000+0 -28509-3 0  9993
2 48986  87.9099 229.0384 0002052  94.0266 266.1099 13.16595351239683
ONEWEB-0269             
1 48987U 21060W   26166.87415034  .00000064  00000+0  13481-3 0  9997
2 48987  87.9092 229.0446 0002169  93.3393 266.7986 13.16595126239454
ONEWEB-0270             
1 48988U 21060X   26166.89156855 -.00000100  00000+0 -29433-3 0  9990
2 48988  87.9100 229.0406 0001864 107.4615 252.6720 13.16594510239496
ONEWEB-0271             
1 48989U 21060Y   26166.87890219 -.00000067  00000+0 -21016-3 0  9999
2 48989  87.9097 229.0328 0001810 100.8222 259.3113 13.16594814239494
ONEWEB-0272             
1 48990U 21060Z   26166.90105707 -.00000077  00000+0 -23523-3 0  9992
2 48990  87.9097 229.0406 0001874  91.0188 269.1157 13.16592649239441
ONEWEB-0273             
1 48991U 21060AA  26166.92323236  .00000157  00000+0  37622-3 0  9996
2 48991  87.9101 229.0351 0001907 101.0580 259.0766 13.16594971239424
ONEWEB-0274             
1 48992U 21060AB  26166.87256189  .00000052  00000+0  10180-3 0  9997
2 48992  87.9092 229.0476 0001926  88.3151 271.8201 13.16594177239451
