OBJECT_NAME,OBJECT_ID,EPOCH,MEAN_MOTION,ECCENTRICITY,INCLINATION,RA_OF_ASC_NODE,ARG_OF_PERICENTER,MEAN_ANOMALY,EPHEMERIS_TYPE,CLASSIFICATION_TYPE,NORAD_CAT_ID,ELEMENT_SET_NO,REV_AT_EPOCH,BSTAR,MEAN_MOTION_DOT,MEAN_MOTION_DDOT
ONEWEB-0236,2021-045AG,2026-06-15T23:00:50.999904,13.15547973,.00020859,87.9001,259.4511,101.6667,258.4698,0,U,48797,999,24409,-.17510381E-4,.6E-7,0
ONEWEB-0248,2021-045AH,2026-06-15T17:50:31.268544,13.15547262,.00017359,87.9012,259.4774,114.3441,245.7871,0,U,48798,999,24422,-.42138478E-3,-.146E-5,0
ONEWEB-0225,2021-045AJ,2026-06-15T18:22:28.871616,13.15548995,.0001438,87.9006,259.4812,109.7656,250.3630,0,U,48799,999,24423,-.47925778E-4,-.5E-7,0
ONEWEB-0215,2021-045AK,2026-06-15T23:07:40.138464,13.15546973,.00014659,87.9014,259.4240,116.8981,243.2299,0,U,48800,999,24413,-.94360194E-4,-.23E-6,0
ONEWEB-0216,2021-045AL,2026-06-15T17:52:49.118016,13.15548854,.00019626,87.9010,259.4826,98.3388,261.7965,0,U,48801,999,24411,-.2518592E-3,-.82E-6,0
ONEWEB-0239,2021-045AM,2026-06-15T17:59:39.463584,13.15548213,.00016497,87.8999,259.4881,124.5858,235.5428,0,U,48802,999,24415,-.27131788E-3,-.89E-6,0
ONEWEB-0249,2021-060A,2026-06-15T21:54:37.854432,13.16595581,.00020555,87.9098,229.0313,101.7257,258.4105,0,U,48967,999,23944,.23379729E-4,.22E-6,0
ONEWEB-0250,2021-060B,2026-06-15T20:58:03.300384,13.25833655,.00028021,87.9097,226.7996,114.9686,245.1741,0,U,48968,999,24004,.17292179E-4,.21E-6,0
ONEWEB-0252,2021-060D,2026-06-15T20:49:39.484704,13.16594056,.00019113,87.9100,229.0323,92.1906,267.9444,0,U,48970,999,23948,.20520699E-3,.91E-6,0
ONEWEB-0253,2021-060E,2026-06-15T16:54:49.707072,13.16593715,.00020546,87.9098,229.0702,101.5523,258.5839,0,U,48971,999,23939,.35446615E-4,.26E-6,0
ONEWEB-0254,2021-060F,2026-06-15T20:47:22.856928,13.16594761,.00018998,87.9101,229.0356,106.2189,253.9151,0,U,48972,999,23941,-.91548752E-4,-.22E-6,0
ONEWEB-0255,2021-060G,2026-06-15T21:42:05.877216,13.16594620,.00018857,87.9096,229.0348,102.1775,257.9567,0,U,48973,999,23949,.10096701E-3,.51E-6,0
ONEWEB-0256,2021-060H,2026-06-15T16:51:23.969664,13.16593346,.0002078,87.9094,229.0790,94.8087,265.3282,0,U,48974,999,23943,.10169894E-3,.52E-6,0
ONEWEB-0257,2021-060J,2026-06-15T21:17:00.725280,13.16594696,.00019088,87.9096,229.0294,97.3602,262.7745,0,U,48975,999,23941,-.24367029E-3,-.8E-6,0
ONEWEB-0258,2021-060K,2026-06-15T15:50:59.350560,13.16594135,.00020663,87.9098,229.0865,99.6447,260.4917,0,U,48976,999,23939,-.16607144E-3,-.51E-6,0
ONEWEB-0259,2021-060L,2026-06-15T21:10:10.771968,13.16595080,.00020652,87.9097,229.0415,103.2329,256.9032,0,U,48977,999,23945,-.29782609E-3,-.101E-5,0
ONEWEB-0260,2021-060M,2026-06-15T20:57:37.835712,13.16594574,.00019983,87.9094,229.0450,86.6855,273.4505,0,U,48978,999,23943,-.77398511E-4,-.17E-6,0
ONEWEB-0261,2021-060N,2026-06-15T22:03:43.460928,13.16596058,.00016904,87.9094,229.0359,99.7968,260.3353,0,U,48979,999,23949,.27780744E-3,.119E-5,0
ONEWEB-0262,2021-060P,2026-06-15T21:35:15.301824,13.16594733,.00020699,87.9097,229.0257,106.2935,253.8424,0,U,48980,999,23945,.95218635E-4,.49E-6,0
ONEWEB-0263,2021-060Q,2026-06-15T22:20:51.169056,13.16594423,.00017333,87.9099,229.0311,103.5090,256.6234,0,U,48981,999,23942,.22531668E-3,.99E-6,0
ONEWEB-0264,2021-060R,2026-06-15T15:56:41.599968,13.16594772,.00018659,87.9098,229.0872,94.2340,265.9004,0,U,48982,999,23939,-.30579489E-3,-.104E-5,0
ONEWEB-0266,2021-060T,2026-06-15T21:55:46.590816,13.16594086,.00021269,87.9098,229.0281,98.8411,261.2960,0,U,48984,999,23941,-.44735882E-4,-.4E-7,0
ONEWEB-0267,2021-060U,2026-06-15T22:11:44.186208,13.16594503,.00018077,87.9100,229.0225,98.3219,261.8117,0,U,48985,999,23942,.36446351E-3,.152E-5,0
ONEWEB-0268,2021-060V,2026-06-15T21:26:06.970272,13.16595351,.00020521,87.9099,229.0384,94.0266,266.1099,0,U,48986,999,23968,-.28509038E-3,-.96E-6,0
ONEWEB-0269,2021-060W,2026-06-15T20:58:46.589376,13.16595126,.00021693,87.9092,229.0446,93.3393,266.7986,0,U,48987,999,23945,.13480821E-3,.64E-6,0
ONEWEB-0270,2021-060X,2026-06-15T21:23:51.522720,13.16594510,.0001864,87.9100,229.0406,107.4615,252.6720,0,U,48988,999,23949,-.29432935E-3,-.1E-5,0
ONEWEB-0271,2021-060Y,2026-06-15T21:05:37.149216,13.16594814,.00018107,87.9097,229.0328,100.8222,259.3113,0,U,48989,999,23949,-.21015611E-3,-.67E-6,0
ONEWEB-0272,2021-060Z,2026-06-15T21:37:31.330848,13.16592649,.00018745,87.9097,229.0406,91.0188,269.1157,0,U,48990,999,23944,-.23522843E-3,-.77E-6,0
ONEWEB-0273,2021-060AA,2026-06-15T22:09:27.275904,13.16594971,.00019077,87.9101,229.0351,101.0580,259.0766,0,U,48991,999,23942,.37621914E-3,.157E-5,0
ONEWEB-0274,2021-060AB,2026-06-15T20:56:29.347296,13.16594177,.00019265,87.9092,229.0476,88.3151,271.8201,0,U,48992,999,23945,.10179815E-3,.52E-6,0
